CZ-2C R/B               
1 54039U 22132E   25342.55140494  .00039885  00000+0  59969-3 0  9992
2 54039  97.2947 338.6705 0023499  70.7690 289.6104 15.54428070176188
GSLV R/B                
1 54149U 22138AN  25342.64201525  .00003902  00000+0  34272-3 0  9994
2 54149  87.3826 196.8466 0023834 119.2179 241.1440 14.96100218170319
XRISM                   
1 57800U 23137A   25342.53842701  .00007363  00000+0  43285-3 0  9995
2 57800  31.0003 152.6682 0007688 202.9733 157.0562 15.10275133123992
ACS3                    
1 59588U 24077B   25342.63715723  .00040215  00000+0  34474-1 0  9999
2 59588  97.2720 299.1592 0077937 347.7536  12.1729 13.85191962 81577
SZ-21 MODULE            
1 66515U 25246C   25342.51202554  .00030446  00000+0  33876-3 0  9998
2 66515  41.4773  41.8306 0006238 236.9164 123.1077 15.62178331  3789
