CCSDS_OMM_VERS = 2.0
CREATION_DATE  = 
ORIGINATOR     = 

OBJECT_NAME    = CZ-2C R/B
OBJECT_ID      = 2022-132E
CENTER_NAME    = EARTH
REF_FRAME      = TEME
TIME_SYSTEM    = UTC
MEAN_ELEMENT_THEORY = SGP/SGP4

EPOCH          = 2025-12-08T13:14:01.386816
MEAN_MOTION    = 15.54428070
ECCENTRICITY   = .00234992
INCLINATION    = 97.2947
RA_OF_ASC_NODE = 338.6705
ARG_OF_PERICENTER = 70.7690
MEAN_ANOMALY   = 289.6104

EPHEMERIS_TYPE = 0
CLASSIFICATION_TYPE = U
NORAD_CAT_ID   = 54039
ELEMENT_SET_NO = 999
REV_AT_EPOCH   = 17618
BSTAR          = .59968798E-3
MEAN_MOTION_DOT = .39885E-3
MEAN_MOTION_DDOT = 0

CCSDS_OMM_VERS = 2.0
CREATION_DATE  = 
ORIGINATOR     = 

OBJECT_NAME    = GSLV R/B
OBJECT_ID      = 2022-138AN
CENTER_NAME    = EARTH
REF_FRAME      = TEME
TIME_SYSTEM    = UTC
MEAN_ELEMENT_THEORY = SGP/SGP4

EPOCH          = 2025-12-08T15:24:30.117600
MEAN_MOTION    = 14.96100218
ECCENTRICITY   = .00238347
INCLINATION    = 87.3826
RA_OF_ASC_NODE = 196.8466
ARG_OF_PERICENTER = 119.2179
MEAN_ANOMALY   = 241.1440

EPHEMERIS_TYPE = 0
CLASSIFICATION_TYPE = U
NORAD_CAT_ID   = 54149
ELEMENT_SET_NO = 999
REV_AT_EPOCH   = 17031
BSTAR          = .34272344E-3
MEAN_MOTION_DOT = .3902E-4
MEAN_MOTION_DDOT = 0

CCSDS_OMM_VERS = 2.0
CREATION_DATE  = 
ORIGINATOR     = 

OBJECT_NAME    = XRISM
OBJECT_ID      = 2023-137A
CENTER_NAME    = EARTH
REF_FRAME      = TEME
TIME_SYSTEM    = UTC
MEAN_ELEMENT_THEORY = SGP/SGP4

EPOCH          = 2025-12-08T12:55:20.093664
MEAN_MOTION    = 15.10275133
ECCENTRICITY   = .00076884
INCLINATION    = 31.0003
RA_OF_ASC_NODE = 152.6682
ARG_OF_PERICENTER = 202.9733
MEAN_ANOMALY   = 157.0562

EPHEMERIS_TYPE = 0
CLASSIFICATION_TYPE = U
NORAD_CAT_ID   = 57800
ELEMENT_SET_NO = 999
REV_AT_EPOCH   = 12399
BSTAR          = .43284946E-3
MEAN_MOTION_DOT = .7363E-4
MEAN_MOTION_DDOT = 0

CCSDS_OMM_VERS = 2.0
CREATION_DATE  = 
ORIGINATOR     = 

OBJECT_NAME    = ACS3
OBJECT_ID      = 2024-077B
CENTER_NAME    = EARTH
REF_FRAME      = TEME
TIME_SYSTEM    = UTC
MEAN_ELEMENT_THEORY = SGP/SGP4

EPOCH          = 2025-12-08T15:17:30.384672
MEAN_MOTION    = 13.85191962
ECCENTRICITY   = .0077937
INCLINATION    = 97.2720
RA_OF_ASC_NODE = 299.1592
ARG_OF_PERICENTER = 347.7536
MEAN_ANOMALY   = 12.1729

EPHEMERIS_TYPE = 0
CLASSIFICATION_TYPE = U
NORAD_CAT_ID   = 59588
ELEMENT_SET_NO = 999
REV_AT_EPOCH   = 8157
BSTAR          = .3447448E-1
MEAN_MOTION_DOT = .40215E-3
MEAN_MOTION_DDOT = 0

CCSDS_OMM_VERS = 2.0
CREATION_DATE  = 
ORIGINATOR     = 

OBJECT_NAME    = SZ-21 MODULE
OBJECT_ID      = 2025-246C
CENTER_NAME    = EARTH
REF_FRAME      = TEME
TIME_SYSTEM    = UTC
MEAN_ELEMENT_THEORY = SGP/SGP4

EPOCH          = 2025-12-08T12:17:19.006656
MEAN_MOTION    = 15.62178331
ECCENTRICITY   = .00062383
INCLINATION    = 41.4773
RA_OF_ASC_NODE = 41.8306
ARG_OF_PERICENTER = 236.9164
MEAN_ANOMALY   = 123.1077

EPHEMERIS_TYPE = 0
CLASSIFICATION_TYPE = U
NORAD_CAT_ID   = 66515
ELEMENT_SET_NO = 999
REV_AT_EPOCH   = 378
BSTAR          = .33876447E-3
MEAN_MOTION_DOT = .30446E-3
MEAN_MOTION_DDOT = 0

